{
  "type": "FeatureCollection",
  "features": [
    {
      "type": "Feature",
      "properties": {
        "norad_id": 44231,
        "name": "BEIDOU-2 G8 (C01)",
        "group": "gnss",
        "lat": -1.006074612513027,
        "lon": 38.0341893667492,
        "alt_km": 35770.71799181436,
        "timestamp": "2025-12-27T10:28:59.038781+00:00",
        "meta_object_name": "BEIDOU-2 G8 (C01)",
        "meta_object_id": "2019-027A",
        "meta_epoch": "2025-12-27T05:07:43.057056",
        "meta_mean_motion": 1.00273552,
        "meta_eccentricity": 0.0008351,
        "meta_inclination": 1.6963,
        "meta_ra_of_asc_node": 74.7446,
        "meta_arg_of_pericenter": 258.7361,
        "meta_mean_anomaly": 343.9236,
        "meta_ephemeris_type": 0,
        "meta_classification_type": "U",
        "meta_norad_cat_id": 44231,
        "meta_element_set_no": 999,
        "meta_rev_at_epoch": 2435,
        "meta_bstar": 0,
        "meta_mean_motion_dot": -2.25e-06,
        "meta_mean_motion_ddot": 0,
        "tle_line1": "1 44231U 19027A   25361.21369279 -.00000225  00000+0  00000+0 0  9997",
        "tle_line2": "2 44231   1.6963  74.7446 0008351 258.7361 343.9236  1.00273552 24351"
      },
      "geometry": {
        "type": "Point",
        "coordinates": [
          38.0341893667492,
          -1.006074612513027
        ]
      }
    },
    {
      "type": "Feature",
      "properties": {
        "norad_id": 44299,
        "name": "COSMOS 2534 (758)",
        "group": "gnss",
        "lat": 37.33300850948356,
        "lon": -3.088841877923951,
        "alt_km": 19143.820517307515,
        "timestamp": "2025-12-27T10:28:59.038792+00:00",
        "meta_object_name": "COSMOS 2534 (758)",
        "meta_object_id": "2019-030A",
        "meta_epoch": "2025-12-27T00:38:16.600128",
        "meta_mean_motion": 2.13102128,
        "meta_eccentricity": 0.0008617,
        "meta_inclination": 64.3665,
        "meta_ra_of_asc_node": 198.4112,
        "meta_arg_of_pericenter": 283.8856,
        "meta_mean_anomaly": 259.1892,
        "meta_ephemeris_type": 0,
        "meta_classification_type": "U",
        "meta_norad_cat_id": 44299,
        "meta_element_set_no": 999,
        "meta_rev_at_epoch": 5125,
        "meta_bstar": 0,
        "meta_mean_motion_dot": 1.18e-06,
        "meta_mean_motion_ddot": 0,
        "tle_line1": "1 44299U 19030A   25361.02658102  .00000118  00000+0  00000+0 0  9990",
        "tle_line2": "2 44299  64.3665 198.4112 0008617 283.8856 259.1892  2.13102128 51257"
      },
      "geometry": {
        "type": "Point",
        "coordinates": [
          -3.088841877923951,
          37.33300850948356
        ]
      }
    },
    {
      "type": "Feature",
      "properties": {
        "norad_id": 44337,
        "name": "BEIDOU-3 IGSO-2 (C39)",
        "group": "gnss",
        "lat": -26.13709076314205,
        "lon": 0.3026562800215348,
        "alt_km": 35634.118700621206,
        "timestamp": "2025-12-27T10:28:59.038805+00:00",
        "meta_object_name": "BEIDOU-3 IGSO-2 (C39)",
        "meta_object_id": "2019-035A",
        "meta_epoch": "2025-12-26T08:27:52.331328",
        "meta_mean_motion": 1.00266958,
        "meta_eccentricity": 0.0037903,
        "meta_inclination": 55.2292,
        "meta_ra_of_asc_node": 160.3818,
        "meta_arg_of_pericenter": 202.693,
        "meta_mean_anomaly": 338.2763,
        "meta_ephemeris_type": 0,
        "meta_classification_type": "U",
        "meta_norad_cat_id": 44337,
        "meta_element_set_no": 999,
        "meta_rev_at_epoch": 2393,
        "meta_bstar": 0,
        "meta_mean_motion_dot": -6e-07,
        "meta_mean_motion_ddot": 0,
        "tle_line1": "1 44337U 19035A   25360.35268902 -.00000060  00000+0  00000+0 0  9995",
        "tle_line2": "2 44337  55.2292 160.3818 0037903 202.6930 338.2763  1.00266958 23935"
      },
      "geometry": {
        "type": "Point",
        "coordinates": [
          0.3026562800215348,
          -26.13709076314205
        ]
      }
    },
    {
      "type": "Feature",
      "properties": {
        "norad_id": 44506,
        "name": "GPS BIII-2  (PRN 18)",
        "group": "gnss",
        "lat": -26.515360782397316,
        "lon": 177.84959632032275,
        "alt_km": 20036.755073949083,
        "timestamp": "2025-12-27T10:28:59.038824+00:00",
        "meta_object_name": "GPS BIII-2  (PRN 18)",
        "meta_object_id": "2019-056A",
        "meta_epoch": "2025-12-26T20:32:24.377280",
        "meta_mean_motion": 2.0056645,
        "meta_eccentricity": 0.00577777,
        "meta_inclination": 55.7161,
        "meta_ra_of_asc_node": 337.993,
        "meta_arg_of_pericenter": 198.6833,
        "meta_mean_anomaly": 314.3411,
        "meta_ephemeris_type": 0,
        "meta_classification_type": "U",
        "meta_norad_cat_id": 44506,
        "meta_element_set_no": 999,
        "meta_rev_at_epoch": 4661,
        "meta_bstar": 0,
        "meta_mean_motion_dot": -5.9e-07,
        "meta_mean_motion_ddot": 0,
        "tle_line1": "1 44506U 19056A   25360.85583770 -.00000059  00000+0  00000+0 0  9992",
        "tle_line2": "2 44506  55.7161 337.9930 0057777 198.6833 314.3411  2.00566450 46613"
      },
      "geometry": {
        "type": "Point",
        "coordinates": [
          177.84959632032275,
          -26.515360782397316
        ]
      }
    },
    {
      "type": "Feature",
      "properties": {
        "norad_id": 44542,
        "name": "BEIDOU-3 M24 (C46)",
        "group": "gnss",
        "lat": 10.887713860587334,
        "lon": -163.55457877614023,
        "alt_km": 21501.026902347625,
        "timestamp": "2025-12-27T10:28:59.038835+00:00",
        "meta_object_name": "BEIDOU-3 M24 (C46)",
        "meta_object_id": "2019-061A",
        "meta_epoch": "2025-12-25T19:20:31.720416",
        "meta_mean_motion": 1.86229328,
        "meta_eccentricity": 0.00095592,
        "meta_inclination": 54.4007,
        "meta_ra_of_asc_node": 188.5751,
        "meta_arg_of_pericenter": 26.2339,
        "meta_mean_anomaly": 333.8493,
        "meta_ephemeris_type": 0,
        "meta_classification_type": "U",
        "meta_norad_cat_id": 44542,
        "meta_element_set_no": 999,
        "meta_rev_at_epoch": 4256,
        "meta_bstar": 0,
        "meta_mean_motion_dot": 1.16e-06,
        "meta_mean_motion_ddot": 0,
        "tle_line1": "1 44542U 19061A   25359.80592269  .00000116  00000+0  00000+0 0  9997",
        "tle_line2": "2 44542  54.4007 188.5751 0009559  26.2339 333.8493  1.86229328 42560"
      },
      "geometry": {
        "type": "Point",
        "coordinates": [
          -163.55457877614023,
          10.887713860587334
        ]
      }
    },
    {
      "type": "Feature",
      "properties": {
        "norad_id": 44543,
        "name": "BEIDOU-3 M23 (C45)",
        "group": "gnss",
        "lat": -51.35386041404447,
        "lon": 124.82123495907638,
        "alt_km": 21536.802140643278,
        "timestamp": "2025-12-27T10:28:59.038848+00:00",
        "meta_object_name": "BEIDOU-3 M23 (C45)",
        "meta_object_id": "2019-061B",
        "meta_epoch": "2025-12-26T11:37:48.857664",
        "meta_mean_motion": 1.86227559,
        "meta_eccentricity": 0.0005976,
        "meta_inclination": 54.3995,
        "meta_ra_of_asc_node": 188.5205,
        "meta_arg_of_pericenter": 25.6827,
        "meta_mean_anomaly": 342.0898,
        "meta_ephemeris_type": 0,
        "meta_classification_type": "U",
        "meta_norad_cat_id": 44543,
        "meta_element_set_no": 999,
        "meta_rev_at_epoch": 4258,
        "meta_bstar": 0,
        "meta_mean_motion_dot": 1.22e-06,
        "meta_mean_motion_ddot": 0,
        "tle_line1": "1 44543U 19061B   25360.48459326  .00000122  00000+0  00000+0 0  9997",
        "tle_line2": "2 44543  54.3995 188.5205 0005976  25.6827 342.0898  1.86227559 42581"
      },
      "geometry": {
        "type": "Point",
        "coordinates": [
          124.82123495907638,
          -51.35386041404447
        ]
      }
    },
    {
      "type": "Feature",
      "properties": {
        "norad_id": 44624,
        "name": "EUTELSAT 5 WEST B (EGNOS/PRN 121)",
        "group": "gnss",
        "lat": -0.07729017367191818,
        "lon": -111.6117184589891,
        "alt_km": 35773.82923152399,
        "timestamp": "2025-12-27T10:28:59.038860+00:00",
        "meta_object_name": "EUTELSAT 5 WEST B (EGNOS/PRN 121)",
        "meta_object_id": "2019-067A",
        "meta_epoch": "2025-12-27T02:42:22.362912",
        "meta_mean_motion": 1.00271218,
        "meta_eccentricity": 0.0003267,
        "meta_inclination": 0.0618,
        "meta_ra_of_asc_node": 348.3802,
        "meta_arg_of_pericenter": 286.1386,
        "meta_mean_anomaly": 216.922,
        "meta_ephemeris_type": 0,
        "meta_classification_type": "U",
        "meta_norad_cat_id": 44624,
        "meta_element_set_no": 999,
        "meta_rev_at_epoch": 2271,
        "meta_bstar": 0,
        "meta_mean_motion_dot": -2e-07,
        "meta_mean_motion_ddot": 0,
        "tle_line1": "1 44624U 19067A   25361.11275883 -.00000020  00000+0  00000+0 0  9996",
        "tle_line2": "2 44624   0.0618 348.3802 0003267 286.1386 216.9220  1.00271218 22713"
      },
      "geometry": {
        "type": "Point",
        "coordinates": [
          -111.6117184589891,
          -0.07729017367191818
        ]
      }
    }
  ]
}